OBJECT_NAME,OBJECT_ID,EPOCH,MEAN_MOTION,ECCENTRICITY,INCLINATION,RA_OF_ASC_NODE,ARG_OF_PERICENTER,MEAN_ANOMALY,EPHEMERIS_TYPE,CLASSIFICATION_TYPE,NORAD_CAT_ID,ELEMENT_SET_NO,REV_AT_EPOCH,BSTAR,MEAN_MOTION_DOT,MEAN_MOTION_DDOT
KUIPER-00592,2026-118L,2026-06-19T03:16:49.624608,15.38144252,.00035839,51.8710,43.7485,141.8289,218.2952,0,U,69277,999,428,.53515688E-3,.20078E-3,0
KUIPER-00593,2026-118M,2026-06-19T03:17:56.149152,15.38103949,.00037406,51.8715,43.7527,162.2393,197.8725,0,U,69278,999,434,.57564701E-3,.21603E-3,0
KUIPER-00594,2026-118N,2026-06-19T03:05:09.724128,15.38711059,.00008785,51.8723,43.6946,83.4614,276.6474,0,U,69279,999,428,.61917105E-3,.23741E-3,0
KUIPER-00595,2026-118P,2026-06-19T03:08:34.550880,15.38547127,.00013563,51.8716,43.7110,151.6218,208.4843,0,U,69280,999,431,.53752443E-3,.20438E-3,0
KUIPER-00596,2026-118Q,2026-06-19T04:06:16.343136,15.34753239,.00125007,51.8561,43.9514,192.2841,167.7842,0,U,69281,999,428,.56887511E-3,.19168E-3,0
KUIPER-00597,2026-118R,2026-06-19T03:35:09.506976,15.37075874,.00069538,51.8653,43.8273,179.1032,180.9968,0,U,69282,999,428,.48888278E-3,.17678E-3,0
KUIPER-00599,2026-118S,2026-06-19T03:30:23.149728,15.37370304,.00059255,51.8693,43.8093,173.2623,186.8444,0,U,69283,999,428,.49725265E-3,.18159E-3,0
KUIPER-00600,2026-118T,2026-06-19T03:41:51.132192,15.36715082,.00084816,51.8643,43.8563,179.3100,180.7900,0,U,69284,999,428,.4691323E-3,.16752E-3,0
KUIPER-00601,2026-118U,2026-06-19T03:24:50.994432,15.37705519,.00046367,51.8706,43.7841,162.2387,197.8762,0,U,69285,999,428,.48972298E-3,.18073E-3,0
KUIPER-00602,2026-118V,2026-06-19T03:15:25.126272,15.38232680,.00028155,51.8705,43.7424,154.5021,205.6106,0,U,69286,999,428,.52268642E-3,.19656E-3,0
KUIPER-00603,2026-118W,2026-06-19T03:26:51.455904,15.37624920,.0005378,51.8674,43.7927,168.1112,192.0003,0,U,69287,999,428,.51690395E-3,.19052E-3,0
KUIPER-00605,2026-118X,2026-06-19T03:36:04.166208,15.37096554,.00073692,51.8665,43.8321,174.8704,185.2360,0,U,69288,999,428,.51642351E-3,.18712E-3,0
KUIPER-00606,2026-118Y,2026-06-19T03:22:56.115264,15.37739624,.00046038,51.8697,43.7761,161.4423,198.6732,0,U,69289,999,428,.51832949E-3,.19176E-3,0
KUIPER-00607,2026-118Z,2026-06-19T03:28:47.592192,15.37491519,.000602,51.8682,43.8020,169.0145,191.0974,0,U,69290,999,428,.5058726E-3,.18556E-3,0
KUIPER-00608,2026-118AA,2026-06-19T02:22:52.379904,15.35248576,.0008399,51.8613,44.2308,182.7562,177.3379,0,U,69291,999,427,.46740541E-3,.15907E-3,0
KUIPER-00610,2026-118AB,2026-06-19T03:12:18.311328,15.38237359,.00021339,51.8724,43.7260,156.3657,203.7428,0,U,69292,999,428,.52411734E-3,.19714E-3,0
KUIPER-00613,2026-118AC,2026-06-19T04:04:20.523072,15.34443186,.00098962,51.8639,43.9553,188.9011,171.1800,0,U,69293,999,428,-.55740138E-3,-.19244E-3,0
KUIPER-00618,2026-118AD,2026-06-19T03:05:54.188160,15.38696865,.00015935,51.8724,43.6960,96.3750,263.7419,0,U,69294,999,428,.60814443E-3,.23299E-3,0
KUIPER-00620,2026-118AE,2026-06-19T03:11:21.154272,15.38361173,.00027018,51.8720,43.7222,128.8791,231.2437,0,U,69295,999,428,.51149117E-3,.19307E-3,0
STARLINK-37501,2026-119A,2026-06-19T06:00:02.000160,15.53712844,.00020204,97.2845,196.0951,92.2488,83.4665,0,U,69296,999,421,-.48025172E-1,-.2699456E-1,0
STARLINK-37496,2026-119B,2026-06-19T06:00:02.000160,15.55480818,.00020057,97.2852,196.0970,88.0696,84.1872,0,U,69297,999,421,-.42509058E-1,-.2515843E-1,0
STARLINK-37519,2026-119C,2026-06-19T06:00:02.000160,15.53191114,.00019261,97.2852,196.1082,83.5682,109.3250,0,U,69298,999,421,-.44462464E-1,-.2431574E-1,0
STARLINK-37455,2026-119D,2026-06-19T06:00:02.000160,15.49177519,.00014835,97.2854,196.0158,89.5149,256.5935,0,U,69299,999,421,.23909357E-4,.121E-4,0
STARLINK-37456,2026-119E,2026-06-19T06:00:02.000160,15.52059221,.00019454,97.2853,196.1012,76.7699,105.6561,0,U,69300,999,421,-.6744061E-1,-.3515761E-1,0
STARLINK-37630,2026-119F,2026-06-19T06:00:02.000160,15.49177744,.00007458,97.2850,195.9375,93.5479,70.1847,0,U,69301,999,437,.20021313E-4,.998E-5,0
STARLINK-37804,2026-119G,2026-06-19T06:00:02.000160,15.49184151,.00012964,97.2850,195.9342,97.4556,59.2119,0,U,69302,999,437,-.65226106E-4,-.3636E-4,0
STARLINK-37730,2026-119H,2026-06-19T06:00:02.000160,15.60229964,.00016459,97.2848,196.1601,103.8475,218.5747,0,U,69303,999,437,-.34487465E-1,-.2451496E-1,0
STARLINK-37731,2026-119J,2026-06-19T00:42:06.044832,15.49217292,.00010803,97.2850,195.7084,79.2545,280.8827,0,U,69304,999,431,.4052938E-3,.22036E-3,0
STARLINK-37734,2026-119K,2026-06-19T06:00:02.000160,15.51930546,.00007161,97.2853,196.1009,352.2687,189.7451,0,U,69305,999,437,-.6474065E-1,-.3378654E-1,0
STARLINK-37701,2026-119L,2026-06-19T06:00:02.000160,15.57203233,.00015496,97.2849,196.1548,105.0825,200.7025,0,U,69306,999,437,-.40079929E-1,-.2527346E-1,0
