
KUIPER-00592
1 69277U 26118L   26170.13668547  .00020078  00000+0  53516-3 0  9994
2 69277  51.8710  43.7485 0003583 141.8289 218.2952 15.38144252  4286

KUIPER-00593
1 69278U 26118M   26170.13745543  .00021603  00000+0  57565-3 0  9990
2 69278  51.8715  43.7527 0003740 162.2393 197.8725 15.38103949  4342

KUIPER-00594
1 69279U 26118N   26170.12858477  .00023741  00000+0  61917-3 0  9992
2 69279  51.8723  43.6946 0000878  83.4614 276.6474 15.38711059  4282

KUIPER-00595
1 69280U 26118P   26170.13095545  .00020438  00000+0  53752-3 0  9992
2 69280  51.8716  43.7110 0001356 151.6218 208.4843 15.38547127  4310

KUIPER-00596
1 69281U 26118Q   26170.17102249  .00019168  00000+0  56888-3 0  9998
2 69281  51.8561  43.9514 0012500 192.2841 167.7842 15.34753239  4286

KUIPER-00597
1 69282U 26118R   26170.14941559  .00017678  00000+0  48888-3 0  9996
2 69282  51.8653  43.8273 0006953 179.1032 180.9968 15.37075874  4282

KUIPER-00599
1 69283U 26118S   26170.14610127  .00018159  00000+0  49725-3 0  9997
2 69283  51.8693  43.8093 0005925 173.2623 186.8444 15.37370304  4286

KUIPER-00600
1 69284U 26118T   26170.15406403  .00016752  00000+0  46913-3 0  9992
2 69284  51.8643  43.8563 0008481 179.3100 180.7900 15.36715082  4286

KUIPER-00601
1 69285U 26118U   26170.14225688  .00018073  00000+0  48972-3 0  9991
2 69285  51.8706  43.7841 0004636 162.2387 197.8762 15.37705519  4281

KUIPER-00602
1 69286U 26118V   26170.13570748  .00019656  00000+0  52269-3 0  9993
2 69286  51.8705  43.7424 0002815 154.5021 205.6106 15.38232680  4289

KUIPER-00603
1 69287U 26118W   26170.14365111  .00019052  00000+0  51690-3 0  9998
2 69287  51.8674  43.7927 0005378 168.1112 192.0003 15.37624920  4288

KUIPER-00605
1 69288U 26118X   26170.15004822  .00018712  00000+0  51642-3 0  9998
2 69288  51.8665  43.8321 0007369 174.8704 185.2360 15.37096554  4287

KUIPER-00606
1 69289U 26118Y   26170.14092726  .00019176  00000+0  51833-3 0  9995
2 69289  51.8697  43.7761 0004603 161.4423 198.6732 15.37739624  4281

KUIPER-00607
1 69290U 26118Z   26170.14499528  .00018556  00000+0  50587-3 0  9994
2 69290  51.8682  43.8020 0006020 169.0145 191.0974 15.37491519  4289

KUIPER-00608
1 69291U 26118AA  26170.09921736  .00015907  00000+0  46741-3 0  9994
2 69291  51.8613  44.2308 0008399 182.7562 177.3379 15.35248576  4270

KUIPER-00610
1 69292U 26118AB  26170.13354527  .00019714  00000+0  52412-3 0  9990
2 69292  51.8724  43.7260 0002133 156.3657 203.7428 15.38237359  4287

KUIPER-00613
1 69293U 26118AC  26170.16968198 -.00019244  00000+0 -55740-3 0  9996
2 69293  51.8639  43.9553 0009896 188.9011 171.1800 15.34443186  4283

KUIPER-00618
1 69294U 26118AD  26170.12909940  .00023299  00000+0  60814-3 0  9994
2 69294  51.8724  43.6960 0001593  96.3750 263.7419 15.38696865  4288

KUIPER-00620
1 69295U 26118AE  26170.13288373  .00019307  00000+0  51149-3 0  9992
2 69295  51.8720  43.7222 0002701 128.8791 231.2437 15.38361173  4286

STARLINK-37455
1 69299U 26119D   26170.25002315  .00001210  00000+0  23909-4 0  9998
2 69299  97.2854 196.0158 0001483  89.5149 256.5935 15.49177519  4215

STARLINK-37456
1 69300U 26119E   26170.25002315 -.03515761  00000+0 -67441-1 0  9993
2 69300  97.2853 196.1012 0001945  76.7699 105.6561 15.52059221  4210

STARLINK-37496
1 69297U 26119B   26170.25002315 -.02515843  00000+0 -42509-1 0  9996
2 69297  97.2852 196.0970 0002005  88.0696  84.1872 15.55480818  4216

STARLINK-37501
1 69296U 26119A   26170.25002315 -.02699456  00000+0 -48025-1 0  9997
2 69296  97.2845 196.0951 0002020  92.2488  83.4665 15.53712844  4216

STARLINK-37519
1 69298U 26119C   26170.25002315 -.02431574  00000+0 -44462-1 0  9995
2 69298  97.2852 196.1082 0001926  83.5682 109.3250 15.53191114  4214

STARLINK-37630
1 69301U 26119F   26170.25002315  .00000998  00000+0  20021-4 0  9996
2 69301  97.2850 195.9375 0000745  93.5479  70.1847 15.49177744  4374

STARLINK-37701
1 69306U 26119L   26170.25002315 -.02527346  00000+0 -40080-1 0  9990
2 69306  97.2849 196.1548 0001549 105.0825 200.7025 15.57203233  4370

STARLINK-37730
1 69303U 26119H   26170.25002315 -.02451496  00000+0 -34487-1 0  9993
2 69303  97.2848 196.1601 0001645 103.8475 218.5747 15.60229964  4371

STARLINK-37731
1 69304U 26119J   26170.02923663  .00022036  00000+0  40529-3 0  9993
2 69304  97.2850 195.7084 0001080  79.2545 280.8827 15.49217292  4315

STARLINK-37734
1 69305U 26119K   26170.25002315 -.03378654  00000+0 -64741-1 0  9996
2 69305  97.2853 196.1009 0000716 352.2687 189.7451 15.51930546  4370

STARLINK-37804
1 69302U 26119G   26170.25002315 -.00003636  00000+0 -65226-4 0  9997
2 69302  97.2850 195.9342 0001296  97.4556  59.2119 15.49184151  4370
